NORAD_CAT_ID,OBJECT_NAME,OBJECT_TYPE,EPOCH,MEAN_MOTION,ECCENTRICITY,INCLINATION,RA_OF_ASC_NODE,ARG_OF_PERICENTER,MEAN_ANOMALY,BSTAR,MEAN_MOTION_DOT,MEAN_MOTION_DDOT,TLE_LINE0,TLE_LINE1,TLE_LINE2,SEMIMAJOR_AXIS,PERIOD,APOGEE,PERIGEE,DECAYED
54091.0,STARLINK-5221,PAYLOAD,2023-11-14 07:11:13,15.08840229,0.0001417,53.215,173.3113,82.8137,277.3017,4.4735e-05,4.24e-06,0.0,0 STARLINK-5221,1 54091U 22136AS  23318.29946363  .00000424  00000-0  44735-4 0  9999,2 54091  53.2150 173.3113 0001417  82.8137 277.3017 15.08840229 59211,6917.88,95.438,540.725,538.764,0.0
54091.0,STARLINK-5221,PAYLOAD,2023-11-14 21:29:41,15.08839412,0.0001446,53.2161,170.6379,95.1908,264.9249,-4.5759e-05,-1.016e-05,0.0,0 STARLINK-5221,1 54091U 22136AS  23318.89562392 -.00001016  00000-0 -45759-4 0  9998,2 54091  53.2161 170.6379 0001446  95.1908 264.9249 15.08839412 59303,6917.882,95.438,540.748,538.747,0.0
54091.0,STARLINK-5221,PAYLOAD,2023-11-15 22:55:52,15.08838253,0.0001542,53.2143,165.8795,98.5105,261.6062,0.00011025,1.467e-05,0.0,0 STARLINK-5221,1 54091U 22136AS  23319.95546662  .00001467  00000-0  11025-3 0  9994,2 54091  53.2143 165.8795 0001542  98.5105 261.6062 15.08838253 59932,6917.886,95.438,540.817,538.684,0.0
54091.0,STARLINK-5221,PAYLOAD,2023-11-16 13:14:20,15.08837193,0.00015,53.2167,163.2036,102.42,257.696,8.223e-05,1.021e-05,0.0,0 STARLINK-5221,1 54091U 22136AS  23320.55162800  .00001021  00000-0  82230-4 0  9993,2 54091  53.2167 163.2036 0001500 102.4200 257.6960 15.08837193 59555,6917.889,95.438,540.792,538.716,0.0
54091.0,STARLINK-5221,PAYLOAD,2023-11-17 13:05:07,15.08841098,0.0001521,53.2162,158.741,88.6314,271.4852,4.9468e-05,4.99e-06,0.0,0 STARLINK-5221,1 54091U 22136AS  23321.54522927  .00000499  00000-0  49468-4 0  9997,2 54091  53.2162 158.7410 0001521  88.6314 271.4852 15.08841098 59709,6917.877,95.437,540.794,538.69,0.0
54091.0,STARLINK-5221,PAYLOAD,2023-11-18 12:55:54,15.08845826,0.0001562,53.2164,154.2804,88.8418,271.2753,8.2803e-05,1.03e-05,0.0,0 STARLINK-5221,1 54091U 22136AS  23322.53882572  .00001030  00000-0  82803-4 0  9994,2 54091  53.2164 154.2804 0001562  88.8418 271.2753 15.08845826 59858,6917.863,95.437,540.808,538.647,0.0
54091.0,STARLINK-5221,PAYLOAD,2023-11-18 19:17:27,15.0884449,0.0001341,53.2161,153.0912,92.3988,267.7157,0.00012276,1.667e-05,0.0,0 STARLINK-5221,1 54091U 22136AS  23322.80378726  .00001667  00000-0  12276-3 0  9997,2 54091  53.2161 153.0912 0001341  92.3988 267.7157 15.08844490 60361,6917.867,95.437,540.659,538.804,0.0
54091.0,STARLINK-5221,PAYLOAD,2023-11-19 12:46:41,15.08841551,0.0001305,53.2159,149.8201,93.0774,267.0367,7.2069e-05,8.59e-06,0.0,0 STARLINK-5221,1 54091U 22136AS  23323.53242942  .00000859  00000-0  72069-4 0  9997,2 54091  53.2159 149.8201 0001305  93.0774 267.0367 15.08841551 60005,6917.876,95.437,540.643,538.838,0.0
54091.0,STARLINK-5221,PAYLOAD,2023-11-19 19:08:14,15.08842199,0.0001318,53.2161,148.6307,91.5581,268.5562,6.7104e-05,7.8e-06,0.0,0 STARLINK-5221,1 54091U 22136AS  23323.79738877  .00000780  00000-0  67104-4 0  9999,2 54091  53.2161 148.6307 0001318  91.5581 268.5562 15.08842199 60513,6917.874,95.437,540.65,538.827,0.0
54091.0,STARLINK-5221,PAYLOAD,2023-11-20 14:12:51,15.08842535,0.0001355,53.216,145.062,91.9453,268.1694,3.4511e-05,2.61e-06,0.0,0 STARLINK-5221,1 54091U 22136AS  23324.59226845  .00000261  00000-0  34511-4 0  9995,2 54091  53.2160 145.0620 0001355  91.9453 268.1694 15.08842535 60161,6917.873,95.437,540.675,538.8,0.0
54091.0,STARLINK-5221,PAYLOAD,2023-11-20 18:59:01,15.08843657,0.0001325,53.2163,144.1703,90.4685,269.6459,4.1696e-05,3.76e-06,0.0,0 STARLINK-5221,1 54091U 22136AS  23324.79098694  .00000376  00000-0  41696-4 0  9995,2 54091  53.2163 144.1703 0001325  90.4685 269.6459 15.08843657 60198,6917.869,95.437,540.651,538.818,0.0
54091.0,STARLINK-5221,PAYLOAD,2023-11-21 10:52:52,15.08840014,0.0001317,53.2164,141.1966,89.4319,270.6824,6.0958e-05,6.82e-06,0.0,0 STARLINK-5221,1 54091U 22136AS  23325.45338855  .00000682  00000-0  60958-4 0  9997,2 54091  53.2164 141.1966 0001317  89.4319 270.6824 15.08840014 60765,6917.88,95.438,540.656,538.834,0.0
54091.0,STARLINK-5221,PAYLOAD,2023-11-21 17:14:25,15.08840847,0.0001315,53.2165,140.0071,89.323,270.7913,6.5131e-05,7.49e-06,0.0,0 STARLINK-5221,1 54091U 22136AS  23325.71834826  .00000749  00000-0  65131-4 0  9997,2 54091  53.2165 140.0071 0001315  89.3230 270.7913 15.08840847 60337,6917.878,95.438,540.653,538.833,0.0
54091.0,STARLINK-5221,PAYLOAD,2023-11-21 22:00:34,15.08844214,0.0001328,53.2166,139.1149,89.1945,270.9199,8.4177e-05,1.052e-05,0.0,0 STARLINK-5221,1 54091U 22136AS  23325.91706591  .00001052  00000-0  84177-4 0  9995,2 54091  53.2166 139.1149 0001328  89.1945 270.9199 15.08844214 60361,6917.868,95.437,540.651,538.814,0.0
54091.0,STARLINK-5221,PAYLOAD,2023-11-22 18:40:35,15.08839627,0.0001541,53.2175,135.2492,97.1014,263.0154,4.3724e-05,4.08e-06,0.0,0 STARLINK-5221,1 54091U 22136AS  23326.77819071  .00000408  00000-0  43724-4 0  9995,2 54091  53.2175 135.2492 0001541  97.1014 263.0154 15.08839627 60964,6917.882,95.438,540.813,538.68,0.0
54091.0,STARLINK-5221,PAYLOAD,2023-11-23 10:34:27,15.08849211,0.0002069,53.2184,132.2754,84.1394,275.9834,-0.00010911,-2.025e-05,0.0,0 STARLINK-5221,1 54091U 22136AS  23327.44059194 -.00002025  00000-0 -10911-3 0  9992,2 54091  53.2184 132.2754 0002069  84.1394 275.9834 15.08849211 60591,6917.852,95.437,541.149,538.286,0.0
54091.0,STARLINK-5221,PAYLOAD,2023-11-23 18:31:22,15.08856643,0.0001483,53.2166,130.7882,84.3047,275.8114,-0.00020404,-3.535e-05,0.0,0 STARLINK-5221,1 54091U 22136AS  23327.77178807 -.00003535  00000-0 -20404-3 0  9996,2 54091  53.2166 130.7882 0001483  84.3047 275.8114 15.08856643 60645,6917.83,95.437,540.72,538.669,0.0
54091.0,STARLINK-5221,PAYLOAD,2023-11-23 23:17:31,15.08843836,0.0001348,53.2174,129.8951,79.1565,280.9579,6.7264e-05,7.83e-06,0.0,0 STARLINK-5221,1 54091U 22136AS  23327.97050898  .00000783  00000-0  67264-4 0  9993,2 54091  53.2174 129.8951 0001348  79.1565 280.9579 15.08843836 61145,6917.869,95.437,540.666,538.801,0.0
54091.0,STARLINK-5221,PAYLOAD,2023-11-24 10:25:14,15.088346,0.0001146,53.2164,127.8146,87.1092,273.0032,4.7718e-05,4.72e-06,0.0,0 STARLINK-5221,1 54091U 22136AS  23328.43419632  .00000472  00000-0  47718-4 0  9997,2 54091  53.2164 127.8146 0001146  87.1092 273.0032 15.08834600 61212,6917.897,95.438,540.555,538.969,0.0
54091.0,STARLINK-5221,PAYLOAD,2023-11-24 13:36:00,15.08852567,0.0001536,53.2167,127.2197,118.6746,241.4401,-3.1685e-05,-7.92e-06,0.0,0 STARLINK-5221,1 54091U 22136AS  23328.56666868 -.00000792  00000-0 -31685-4 0  9999,2 54091  53.2167 127.2197 0001536 118.6746 241.4401 15.08852567 60764,6917.842,95.437,540.77,538.644,0.0
54091.0,STARLINK-5221,PAYLOAD,2023-11-24 18:22:09,15.0884655,0.0001462,53.216,126.328,108.3993,251.7158,5.2535e-05,5.48e-06,0.0,0 STARLINK-5221,1 54091U 22136AS  23328.76538926  .00000548  00000-0  52535-4 0  9998,2 54091  53.2160 126.3280 0001462 108.3993 251.7158 15.08846550 61262,6917.86,95.437,540.737,538.714,0.0
54091.0,STARLINK-5221,PAYLOAD,2023-11-24 19:57:32,15.08845274,0.0001347,53.2164,126.0306,91.6339,268.4808,0.00012732,1.739e-05,0.0,0 STARLINK-5221,1 54091U 22136AS  23328.83162807  .00001739  00000-0  12732-3 0  9994,2 54091  53.2164 126.0306 0001347  91.6339 268.4808 15.08845274 60800,6917.864,95.437,540.661,538.797,0.0
54091.0,STARLINK-5221,PAYLOAD,2023-11-25 16:37:33,15.0884385,0.0001446,53.2167,122.166,68.8022,291.3124,0.00011803,1.591e-05,0.0,0 STARLINK-5221,1 54091U 22136AS  23329.69275118  .00001591  00000-0  11803-3 0  9993,2 54091  53.2167 122.1660 0001446  68.8022 291.3124 15.08843850 60936,6917.869,95.437,540.734,538.733,0.0
54091.0,STARLINK-5221,PAYLOAD,2023-11-26 13:17:33,15.08849151,0.0001467,53.2168,118.3005,79.2009,280.9148,0.00012262,1.665e-05,0.0,0 STARLINK-5221,1 54091U 22136AS  23330.55386440  .00001665  00000-0  12262-3 0  9993,2 54091  53.2168 118.3005 0001467  79.2009 280.9148 15.08849151 61066,6917.852,95.437,540.732,538.703,0.0
54091.0,STARLINK-5221,PAYLOAD,2023-11-26 16:28:20,15.08850338,0.0001465,53.2156,117.7052,75.8803,284.2352,0.00014741,2.059e-05,0.0,0 STARLINK-5221,1 54091U 22136AS  23330.68634520  .00002059  00000-0  14741-3 0  9994,2 54091  53.2156 117.7052 0001465  75.8803 284.2352 15.08850338 61085,6917.849,95.437,540.727,538.7,0.0
54091.0,STARLINK-5221,PAYLOAD,2023-11-27 09:57:35,15.08842375,0.0002053,53.2187,114.4416,81.2751,278.8473,-0.00010651,-1.983e-05,0.0,0 STARLINK-5221,1 54091U 22136AS  23331.41499037 -.00001983  00000-0 -10651-3 0  9991,2 54091  53.2187 114.4416 0002053  81.2751 278.8473 15.08842375 61663,6917.873,95.437,541.158,538.318,0.0
54091.0,STARLINK-5221,PAYLOAD,2023-11-27 14:43:44,15.08831224,0.0001719,53.2178,113.5444,95.1769,264.9419,-0.00015589,-2.768e-05,0.0,0 STARLINK-5221,1 54091U 22136AS  23331.61371520 -.00002768  00000-0 -15589-3 0  9996,2 54091  53.2178 113.5444 0001719  95.1769 264.9419 15.08831224 61224,6917.907,95.438,540.961,538.583,0.0
54091.0,STARLINK-5221,PAYLOAD,2023-11-27 16:19:08,15.08832821,0.0001652,53.2185,113.2475,90.2194,269.8988,-9.1268e-05,-1.74e-05,0.0,0 STARLINK-5221,1 54091U 22136AS  23331.67995941 -.00001740  00000-0 -91268-4 0  9999,2 54091  53.2185 113.2475 0001652  90.2194 269.8988 15.08832821 61709,6917.902,95.438,540.91,538.624,0.0
54091.0,STARLINK-5221,PAYLOAD,2023-11-28 09:48:22,15.08843475,0.0001433,53.2177,109.9693,107.7641,252.3508,-3.6944e-05,-8.76e-06,0.0,0 STARLINK-5221,1 54091U 22136AS  23332.40859067 -.00000876  00000-0 -36944-4 0  9998,2 54091  53.2177 109.9693 0001433 107.7641 252.3508 15.08843475 61816,6917.87,95.437,540.726,538.743,0.0
54091.0,STARLINK-5221,PAYLOAD,2023-11-28 14:34:31,15.08849372,0.0001435,53.2172,109.08,91.0521,269.0636,7.6826e-05,9.35e-06,0.0,0 STARLINK-5221,1 54091U 22136AS  23332.60730435  .00000935  00000-0  76826-4 0  9994,2 54091  53.2172 109.0800 0001435  91.0521 269.0636 15.08849372 61376,6917.852,95.437,540.709,538.724,0.0
